NORAD_CAT_ID,OBJECT_NAME,OBJECT_TYPE,EPOCH,MEAN_MOTION,ECCENTRICITY,INCLINATION,RA_OF_ASC_NODE,ARG_OF_PERICENTER,MEAN_ANOMALY,BSTAR,MEAN_MOTION_DOT,MEAN_MOTION_DDOT,TLE_LINE0,TLE_LINE1,TLE_LINE2,SEMIMAJOR_AXIS,PERIOD,APOGEE,PERIGEE,DECAYED
52473.0,STARLINK-3879,PAYLOAD,2022-05-22 14:00:01,15.73208801,0.0002222,53.2156,186.2378,25.8422,237.6502,-0.00023876,-0.00034011,0.0,0 STARLINK-3879,1 52473U 22049Y   22142.58334491 -.00034011  00000-0 -23876-3 0  9996,2 52473  53.2156 186.2378 0002222  25.8422 237.6502 15.73208801  1305,6727.87,91.533,351.23,348.24,0.0
52473.0,STARLINK-3879,PAYLOAD,2022-05-22 22:00:01,15.731832199999998,0.0001924,53.2158,184.5861,21.0588,331.4469,2.691e-06,-2.43e-06,0.0,0 STARLINK-3879,1 52473U 22049Y   22142.91668981 -.00000243  00000-0  26910-5 0  9990,2 52473  53.2158 184.5861 0001924  21.0588 331.4469 15.73183220  1306,6727.943,91.534,351.102,348.514,0.0
52473.0,STARLINK-3879,PAYLOAD,2022-05-23 04:00:00,15.73173796,0.0001954,53.2161,183.349,22.4261,306.6963,0.00048632,0.00068112,0.0,0 STARLINK-3879,1 52473U 22049Y   22143.16667824  .00068112  00000-0  48632-3 0  9994,2 52473  53.2161 183.3490 0001954  22.4261 306.6963 15.73173796  2818,6727.97,91.535,351.15,348.52,0.0
52473.0,STARLINK-3879,PAYLOAD,2022-05-23 14:00:01,15.73219064,0.0002265,53.2153,181.2893,21.0638,149.1859,-0.00020347,-0.00029105,0.0,0 STARLINK-3879,1 52473U 22049Y   22143.58334491 -.00029105  00000-0 -20347-3 0  9995,2 52473  53.2153 181.2893 0002265  21.0638 149.1859 15.73219064  1308,6727.840999999999,91.532,351.23,348.182,0.0
52473.0,STARLINK-3879,PAYLOAD,2022-05-23 16:00:00,15.73243833,0.0002221,53.2152,180.8763,20.8386,261.6411,-0.00072432,-0.00101263,0.0,0 STARLINK-3879,1 52473U 22049Y   22143.66667824 -.00101263  00000-0 -72432-3 0  9991,2 52473  53.2152 180.8763 0002221  20.8386 261.6411 15.73243833  2886,6727.77,91.531,351.129,348.141,0.0
52473.0,STARLINK-3879,PAYLOAD,2022-05-23 20:00:01,15.73171859,0.0002117,53.2173,180.0533,24.2881,122.4879,0.00039875,0.00055648,0.0,0 STARLINK-3879,1 52473U 22049Y   22143.83334491  .00055648  00000-0  39875-3 0  9998,2 52473  53.2173 180.0533 0002117  24.2881 122.4879 15.73171859  2912,6727.975,91.535,351.265,348.416,0.0
52473.0,STARLINK-3879,PAYLOAD,2022-05-23 22:00:01,15.73208415,0.0001965,53.2174,179.6407,21.6101,237.4492,-3.8463e-05,-6.018e-05,0.0,0 STARLINK-3879,1 52473U 22049Y   22143.91668981 -.00006018  00000-0 -38463-4 0  9993,2 52473  53.2174 179.6407 0001965  21.6101 237.4492 15.73208415  1302,6727.871,91.533,351.05800000000005,348.414,0.0
52473.0,STARLINK-3879,PAYLOAD,2022-05-24 03:00:06,15.73181165,0.0002323,53.2156,178.6054,52.0278,308.0952,-6.7839e-05,-0.00010124,0.0,0 STARLINK-3879,1 52473U 22049Y   22144.12507590 -.00010124  00000-0 -67839-4 0  9997,2 52473  53.2156 178.6054 0002323  52.0278 308.0952 15.73181165  2962,6727.949000000001,91.534,351.37699999999984,348.251,0.0
52473.0,STARLINK-3879,PAYLOAD,2022-05-24 13:40:27,15.7324703,0.000178,53.2157,176.4046,34.4105,325.703,0.00021307,0.00029448,0.0,0 STARLINK-3879,1 52473U 22049Y   22144.56975903  .00029448  00000-0  21307-3 0  9998,2 52473  53.2157 176.4046 0001780  34.4105 325.7030 15.73247030  2876,6727.761,91.53,350.824,348.42900000000014,0.0
52473.0,STARLINK-3879,PAYLOAD,2022-05-24 14:00:01,15.73223687,0.0002352,53.2156,176.3408,23.0066,54.0459,-0.00019658,-0.0002815,0.0,0 STARLINK-3879,1 52473U 22049Y   22144.58334491 -.00028150  00000-0 -19658-3 0  9998,2 52473  53.2156 176.3408 0002352  23.0066  54.0459 15.73223687  3030,6727.828,91.532,351.275,348.11,0.0
52473.0,STARLINK-3879,PAYLOAD,2022-05-24 22:00:00,15.73199873,0.0002127,53.2158,174.6892,27.2088,138.8041,9.8859e-05,0.00013276,0.0,0 STARLINK-3879,1 52473U 22049Y   22144.91667824  .00013276  00000-0  98859-4 0  9996,2 52473  53.2158 174.6892 0002127  27.2088 138.8041 15.73199873  1305,6727.896,91.533,351.19199999999995,348.33,0.0
52473.0,STARLINK-3879,PAYLOAD,2022-05-25 14:00:01,15.731401000000002,0.0002333,53.2152,171.3923,18.1026,325.7358,0.0005581,0.00078242,0.0,0 STARLINK-3879,1 52473U 22049Y   22145.58334491  .00078242  00000-0  55810-3 0  9994,2 52473  53.2152 171.3923 0002333  18.1026 325.7358 15.73140100  1305,6728.066,91.537,351.501,348.361,0.0
52473.0,STARLINK-3879,PAYLOAD,2022-05-25 22:00:00,15.73178162,0.000203,53.2151,169.7408,22.8032,49.9464,0.00073679,0.00103978,0.0,0 STARLINK-3879,1 52473U 22049Y   22145.91667824  .00103978  00000-0  73679-3 0  9998,2 52473  53.2151 169.7408 0002030  22.8032  49.9464 15.73178162  3243,6727.956999999999,91.534,351.18800000000016,348.457,0.0
52473.0,STARLINK-3879,PAYLOAD,2022-05-26 05:18:57,15.73185524,0.0002614,53.2158,168.232,15.5049,344.6051,1.2319e-05,1.106e-05,0.0,0 STARLINK-3879,1 52473U 22049Y   22146.22150321  .00001106  00000-0  12319-4 0  9997,2 52473  53.2158 168.2320 0002614  15.5049 344.6051 15.73185524  3294,6727.936,91.534,351.56,348.043,0.0
52473.0,STARLINK-3879,PAYLOAD,2022-05-26 06:00:00,15.73253483,0.0002214,53.2153,168.0925,24.7522,136.9297,-0.00046138,-0.0006502999999999,0.0,0 STARLINK-3879,1 52473U 22049Y   22146.25001157 -.00065030  00000-0 -46138-3 0  9995,2 52473  53.2153 168.0925 0002214  24.7522 136.9297 15.73253483  3296,6727.743,91.53,351.097,348.11800000000005,0.0
52473.0,STARLINK-3879,PAYLOAD,2022-05-26 12:56:20,15.73263311,0.0001691,53.2155,166.6596,27.4059,332.705,0.0003259,0.00045491,0.0,0 STARLINK-3879,1 52473U 22049Y   22146.53912758  .00045491  00000-0  32590-3 0  9998,2 52473  53.2155 166.6596 0001691  27.4059 332.7050 15.73263311  3349,6727.715,91.529,350.717,348.44199999999995,0.0
52473.0,STARLINK-3879,PAYLOAD,2022-05-26 14:00:01,15.73244557,0.0002269,53.2151,166.4437,21.5521,229.0809,-0.00050209,-0.00070641,0.0,0 STARLINK-3879,1 52473U 22049Y   22146.58334491 -.00070641  00000-0 -50209-3 0  9999,2 52473  53.2151 166.4437 0002269  21.5521 229.0809 15.73244557  1303,6727.768,91.531,351.16,348.107,0.0
52473.0,STARLINK-3879,PAYLOAD,2022-05-26 20:00:01,15.73178174,0.0002086,53.2156,165.2048,19.8416,207.5209,-0.00028496,-0.00040388,0.0,0 STARLINK-3879,1 52473U 22049Y   22146.83334491 -.00040388  00000-0 -28496-3 0  9995,2 52473  53.2156 165.2048 0002086  19.8416 207.5209 15.73178174  3389,6727.956999999999,91.534,351.226,348.4190000000001,0.0
52473.0,STARLINK-3879,PAYLOAD,2022-05-26 22:00:00,15.73135258,0.000202,53.2153,164.792,19.4927,320.1049,0.00031061,0.00043077,0.0,0 STARLINK-3879,1 52473U 22049Y   22146.91667824  .00043077  00000-0  31061-3 0  9991,2 52473  53.2153 164.7920 0002020  19.4927 320.1049 15.73135258  1300,6728.08,91.537,351.30400000000014,348.586,0.0
52473.0,STARLINK-3879,PAYLOAD,2022-05-27 02:00:01,15.73150338,0.0002015,53.2157,163.9675,20.5985,183.4283,0.00041072,0.00057295,0.0,0 STARLINK-3879,1 52473U 22049Y   22147.08334491  .00057295  00000-0  41072-3 0  9991,2 52473  53.2157 163.9675 0002015  20.5985 183.4283 15.73150338  3424,6728.0369999999975,91.536,351.25699999999995,348.546,0.0
52473.0,STARLINK-3879,PAYLOAD,2022-05-27 14:00:01,15.73196718,0.0002281,53.2146,161.495,17.6626,139.6966,0.00031574,0.0004392,0.0,0 STARLINK-3879,1 52473U 22049Y   22147.58334491  .00043920  00000-0  31574-3 0  9992,2 52473  53.2146 161.4950 0002281  17.6626 139.6966 15.73196718  1303,6727.905,91.533,351.30400000000014,348.235,0.0
52473.0,STARLINK-3879,PAYLOAD,2022-05-27 16:00:00,15.73229352,0.000219,53.2146,161.0819,17.3803,252.2039,-0.00013843,-0.0002003,0.0,0 STARLINK-3879,1 52473U 22049Y   22147.66667824 -.00020030  00000-0 -13843-3 0  9998,2 52473  53.2146 161.0819 0002190  17.3803 252.2039 15.73229352  3515,6727.811,91.531,351.15,348.20300000000015,0.0
52473.0,STARLINK-3879,PAYLOAD,2022-05-27 22:00:01,15.73208988,0.0001962,53.2146,159.8434,17.2938,229.0801,1.8881e-06,-3.56e-06,0.0,0 STARLINK-3879,1 52473U 22049Y   22147.91668981 -.00000356  00000-0  18881-5 0  9998,2 52473  53.2146 159.8434 0001962  17.2938 229.0801 15.73208988  1303,6727.87,91.533,351.055,348.415,0.0
52473.0,STARLINK-3879,PAYLOAD,2022-05-28 06:00:02,15.73224013,0.0002101,53.2148,158.1954,16.0469,319.2795,0.0002073,0.00028603,0.0,0 STARLINK-3879,1 52473U 22049Y   22148.25002315  .00028603  00000-0  20730-3 0  9997,2 52473  53.2148 158.1954 0002101  16.0469 319.2795 15.73224013  3613,6727.8269999999975,91.532,351.105,348.278,0.0
52473.0,STARLINK-3879,PAYLOAD,2022-05-28 14:00:01,15.73406823,0.0002342,53.2158,156.5475,15.6256,48.5885,-0.0041008,-0.00545331,0.0,0 STARLINK-3879,1 52473U 22049Y   22148.58334491 -.00545331  00000-0 -41008-2 0  9990,2 52473  53.2158 156.5475 0002342  15.6256  48.5885 15.73406823  3668,6727.306,91.521,350.746,347.595,0.0
52473.0,STARLINK-3879,PAYLOAD,2022-05-28 22:00:00,15.73187999,0.0001962,53.2149,154.8944,19.1556,134.0655,0.00055797,0.00078383,0.0,0 STARLINK-3879,1 52473U 22049Y   22148.91667824  .00078383  00000-0  55797-3 0  9993,2 52473  53.2149 154.8944 0001962  19.1556 134.0655 15.73187999  3711,6727.929,91.534,351.11400000000015,348.474,0.0
52473.0,STARLINK-3879,PAYLOAD,2022-05-29 03:27:02,15.73181213,0.0002107,53.2148,153.7707,38.7661,321.351,-0.00019797,-0.00028292,0.0,0 STARLINK-3879,1 52473U 22049Y   22149.14378033 -.00028292  00000-0 -19797-3 0  9996,2 52473  53.2148 153.7707 0002107  38.7661 321.3510 15.73181213  3759,6727.949000000001,91.534,351.231,348.396,0.0
52473.0,STARLINK-3879,PAYLOAD,2022-05-29 14:00:01,15.73198984,0.0002229,53.2145,151.5971,15.3072,315.7491,-0.0005009,-0.0007034,0.0,0 STARLINK-3879,1 52473U 22049Y   22149.58334491 -.00070340  00000-0 -50090-3 0  9996,2 52473  53.2145 151.5971 0002229  15.3072 315.7491 15.73198984  3823,6727.898,91.533,351.26300000000015,348.26300000000015,0.0
52473.0,STARLINK-3879,PAYLOAD,2022-05-29 20:00:01,15.73119893,0.0002029,53.2147,150.3584,21.5032,286.2484,0.00068526,0.00096333,0.0,0 STARLINK-3879,1 52473U 22049Y   22149.83334491  .00096333  00000-0  68526-3 0  9995,2 52473  53.2147 150.3584 0002029  21.5032 286.2484 15.73119893  3854,6728.124,91.538,351.35400000000016,348.62300000000016,0.0
